start=new Date('2021-12-01T00:00:00.000Z').valueOf();
sats=[{"MEAN_MOTION_DOT":"0.00049290","ELEMENT_SET_NO":"999","MEAN_MOTION":"15.42166370","RCS_SIZE":"LARGE","REF_FRAME":"TEME","OBJECT_TYPE":"PAYLOAD","COUNTRY_CODE":"US","DECAY_DATE":null,"CENTER_NAME":"EARTH","TIME_SYSTEM":"UTC","FILE":"3227578","ECCENTRICITY":"0.00018700","NORAD_CAT_ID":"46769","TLE_LINE1":"1 46769U 20074AG  21334.19036176  .00049290  00000-0  11345-2 0  9991","ARG_OF_PERICENTER":"30.4022","EPHEMERIS_TYPE":"0","REV_AT_EPOCH":"6103","PERIAPSIS":"438.444","MEAN_ELEMENT_THEORY":"SGP4","INCLINATION":"53.0558","GP_ID":"190787630","SITE":"AFETR","BSTAR":"0.00113450000000","EPOCH":"2021-11-30T04:34:07.256064","OBJECT_NAME":"STARLINK-1919","PERIOD":"93.375","MEAN_ANOMALY":"329.7091","OBJECT_ID":"2020-074AG","CLASSIFICATION_TYPE":"U","TLE_LINE2":"2 46769  53.0558 138.9361 0001870  30.4022 329.7091 15.42166370 61034","MEAN_MOTION_DDOT":"0.0000000000000","LAUNCH_DATE":"2020-10-24","APOAPSIS":"440.994","SEMIMAJOR_AXIS":"6817.854","RA_OF_ASC_NODE":"138.9361"},{"SEMIMAJOR_AXIS":"6925.352","RA_OF_ASC_NODE":"139.4796","APOAPSIS":"548.901","LAUNCH_DATE":"2020-10-24","TLE_LINE2":"2 46770  53.0533 139.4796 0002431  80.7793 279.3471 15.06398722 61348","MEAN_MOTION_DDOT":"0.0000000000000","CLASSIFICATION_TYPE":"U","OBJECT_ID":"2020-074AH","MEAN_ANOMALY":"279.3471","PERIOD":"95.592","OBJECT_NAME":"STARLINK-1932","EPOCH":"2021-11-30T17:53:22.829568","GP_ID":"190816423","BSTAR":"0.00009155300000","SITE":"AFETR","INCLINATION":"53.0533","MEAN_ELEMENT_THEORY":"SGP4","PERIAPSIS":"545.534","REV_AT_EPOCH":"6134","EPHEMERIS_TYPE":"0","ARG_OF_PERICENTER":"80.7793","TLE_LINE1":"1 46770U 20074AH  21334.74540312  .00001082  00000-0  91553-4 0  9994","NORAD_CAT_ID":"46770","ECCENTRICITY":"0.00024310","FILE":"3228256","TIME_SYSTEM":"UTC","DECAY_DATE":null,"CENTER_NAME":"EARTH","COUNTRY_CODE":"US","RCS_SIZE":"LARGE","OBJECT_TYPE":"PAYLOAD","REF_FRAME":"TEME","MEAN_MOTION":"15.06398722","ELEMENT_SET_NO":"999","MEAN_MOTION_DOT":"0.00001082"},{"MEAN_MOTION_DDOT":"0.0000000000000","TLE_LINE2":"2 46772  53.0536 139.5480 0001959  85.0651 275.0561 15.06390366 61348","APOAPSIS":"548.600","LAUNCH_DATE":"2020-10-24","SEMIMAJOR_AXIS":"6925.378","RA_OF_ASC_NODE":"139.5480","OBJECT_ID":"2020-074AK","CLASSIFICATION_TYPE":"U","INCLINATION":"53.0536","SITE":"AFETR","GP_ID":"190816673","BSTAR":"0.00007133500000","EPOCH":"2021-11-30T17:33:29.783808","OBJECT_NAME":"STARLINK-1936","PERIOD":"95.593","MEAN_ANOMALY":"275.0561","NORAD_CAT_ID":"46772","TLE_LINE1":"1 46772U 20074AK  21334.73159472  .00000781  00000-0  71335-4 0  9999","ARG_OF_PERICENTER":"85.0651","EPHEMERIS_TYPE":"0","REV_AT_EPOCH":"6134","PERIAPSIS":"545.886","MEAN_ELEMENT_THEORY":"SGP4","ECCENTRICITY":"0.00019590","OBJECT_TYPE":"PAYLOAD","RCS_SIZE":"LARGE","REF_FRAME":"TEME","COUNTRY_CODE":"US","DECAY_DATE":null,"CENTER_NAME":"EARTH","TIME_SYSTEM":"UTC","FILE":"3228256","MEAN_MOTION":"15.06390366","MEAN_MOTION_DOT":"0.00000781","ELEMENT_SET_NO":"999"},{"EPHEMERIS_TYPE":"0","ARG_OF_PERICENTER":"109.2931","TLE_LINE1":"1 46774U 20074AM  21334.73625725  .00006791  00000-0  44847-3 0  9994","NORAD_CAT_ID":"46774","MEAN_ELEMENT_THEORY":"SGP4","PERIAPSIS":"539.658","REV_AT_EPOCH":"6137","GP_ID":"190816925","BSTAR":"0.00044847000000","SITE":"AFETR","INCLINATION":"53.0517","MEAN_ANOMALY":"250.8237","PERIOD":"95.459","OBJECT_NAME":"STARLINK-1939","EPOCH":"2021-11-30T17:40:12.626400","CLASSIFICATION_TYPE":"U","OBJECT_ID":"2020-074AM","RA_OF_ASC_NODE":"137.9429","SEMIMAJOR_AXIS":"6918.928","APOAPSIS":"541.929","LAUNCH_DATE":"2020-10-24","MEAN_MOTION_DDOT":"0.0000000000000","TLE_LINE2":"2 46774  53.0517 137.9429 0001641 109.2931 250.8237 15.08497248 61375","MEAN_MOTION_DOT":"0.00006791","ELEMENT_SET_NO":"999","MEAN_MOTION":"15.08497248","COUNTRY_CODE":"US","DECAY_DATE":null,"CENTER_NAME":"EARTH","OBJECT_TYPE":"PAYLOAD","RCS_SIZE":"LARGE","REF_FRAME":"TEME","FILE":"3228256","TIME_SYSTEM":"UTC","ECCENTRICITY":"0.00016410"},{"MEAN_MOTION_DOT":"0.00512302","ELEMENT_SET_NO":"999","MEAN_MOTION":"15.65732688","RCS_SIZE":"LARGE","OBJECT_TYPE":"PAYLOAD","REF_FRAME":"TEME","DECAY_DATE":null,"COUNTRY_CODE":"US","CENTER_NAME":"EARTH","TIME_SYSTEM":"UTC","FILE":"3227586","ECCENTRICITY":"0.00011270","ARG_OF_PERICENTER":"14.6458","EPHEMERIS_TYPE":"0","NORAD_CAT_ID":"46775","TLE_LINE1":"1 46775U 20074AN  21334.15992183  .00512302  00000-0  46736-2 0  9994","PERIAPSIS":"370.374","MEAN_ELEMENT_THEORY":"SGP4","REV_AT_EPOCH":"6108","BSTAR":"0.00467360000000","GP_ID":"190787252","SITE":"AFETR","INCLINATION":"53.0587","PERIOD":"91.970","MEAN_ANOMALY":"345.4590","EPOCH":"2021-11-30T03:50:17.246112","OBJECT_NAME":"STARLINK-1945","CLASSIFICATION_TYPE":"U","OBJECT_ID":"2020-074AN","LAUNCH_DATE":"2020-10-24","APOAPSIS":"371.895","RA_OF_ASC_NODE":"131.3708","SEMIMAJOR_AXIS":"6749.269","TLE_LINE2":"2 46775  53.0587 131.3708 0001127  14.6458 345.4590 15.65732688 61087","MEAN_MOTION_DDOT":"0.0000000000000"},{"MEAN_MOTION":"15.06404118","ELEMENT_SET_NO":"999","MEAN_MOTION_DOT":"0.00000600","ECCENTRICITY":"0.00019890","TIME_SYSTEM":"UTC","FILE":"3228256","RCS_SIZE":"LARGE","REF_FRAME":"TEME","OBJECT_TYPE":"PAYLOAD","DECAY_DATE":null,"CENTER_NAME":"EARTH","COUNTRY_CODE":"US","PERIOD":"95.592","MEAN_ANOMALY":"260.0384","EPOCH":"2021-11-30T17:54:42.264864","OBJECT_NAME":"STARLINK-1946","GP_ID":"190815924","BSTAR":"0.00005916100000","SITE":"AFETR","INCLINATION":"53.0534","PERIAPSIS":"545.823","MEAN_ELEMENT_THEORY":"SGP4","REV_AT_EPOCH":"6134","EPHEMERIS_TYPE":"0","ARG_OF_PERICENTER":"100.0830","NORAD_CAT_ID":"46776","TLE_LINE1":"1 46776U 20074AP  21334.74632251  .00000600  00000-0  59161-4 0  9998","APOAPSIS":"548.578","LAUNCH_DATE":"2020-10-24","SEMIMAJOR_AXIS":"6925.336","RA_OF_ASC_NODE":"139.4731","TLE_LINE2":"2 46776  53.0534 139.4731 0001989 100.0830 260.0384 15.06404118 61346","MEAN_MOTION_DDOT":"0.0000000000000","CLASSIFICATION_TYPE":"U","OBJECT_ID":"2020-074AP"},{"REV_AT_EPOCH":"6168","PERIAPSIS":"545.969","MEAN_ELEMENT_THEORY":"SGP4","NORAD_CAT_ID":"46779","TLE_LINE1":"1 46779U 20074AS  21334.69518856  .00001451  00000-0  11623-3 0  9994","ARG_OF_PERICENTER":"91.4171","EPHEMERIS_TYPE":"0","EPOCH":"2021-11-30T16:41:04.291584","OBJECT_NAME":"STARLINK-1798","PERIOD":"95.591","MEAN_ANOMALY":"268.7019","INCLINATION":"53.0547","GP_ID":"190816174","BSTAR":"0.00011623000000","SITE":"AFETR","OBJECT_ID":"2020-074AS","CLASSIFICATION_TYPE":"U","TLE_LINE2":"2 46779  53.0547 114.7003 0001749  91.4171 268.7019 15.06411007 61688","MEAN_MOTION_DDOT":"0.0000000000000","LAUNCH_DATE":"2020-10-24","APOAPSIS":"548.391","SEMIMAJOR_AXIS":"6925.315","RA_OF_ASC_NODE":"114.7003","ELEMENT_SET_NO":"999","MEAN_MOTION_DOT":"0.00001451","MEAN_MOTION":"15.06411007","TIME_SYSTEM":"UTC","FILE":"3228256","REF_FRAME":"TEME","RCS_SIZE":"LARGE","OBJECT_TYPE":"PAYLOAD","CENTER_NAME":"EARTH","DECAY_DATE":null,"COUNTRY_CODE":"US","ECCENTRICITY":"0.00017490"},{"SITE":"AFETR","GP_ID":"190817425","BSTAR":"-0.00001195900000","INCLINATION":"53.0548","PERIOD":"95.592","MEAN_ANOMALY":"272.0703","EPOCH":"2021-11-30T16:25:08.340384","OBJECT_NAME":"STARLINK-1832","ARG_OF_PERICENTER":"88.0485","EPHEMERIS_TYPE":"0","NORAD_CAT_ID":"46780","TLE_LINE1":"1 46780U 20074AT  21334.68412431 -.00000460  00000-0 -11959-4 0  9991","PERIAPSIS":"546.011","MEAN_ELEMENT_THEORY":"SGP4","REV_AT_EPOCH":"6168","LAUNCH_DATE":"2020-10-24","APOAPSIS":"548.414","SEMIMAJOR_AXIS":"6925.348","RA_OF_ASC_NODE":"114.7539","MEAN_MOTION_DDOT":"0.0000000000000","TLE_LINE2":"2 46780  53.0548 114.7539 0001735  88.0485 272.0703 15.06400252 61688","CLASSIFICATION_TYPE":"U","OBJECT_ID":"2020-074AT","MEAN_MOTION":"15.06400252","MEAN_MOTION_DOT":"-0.00000460","ELEMENT_SET_NO":"999","ECCENTRICITY":"0.00017350","REF_FRAME":"TEME","RCS_SIZE":"LARGE","OBJECT_TYPE":"PAYLOAD","DECAY_DATE":null,"CENTER_NAME":"EARTH","COUNTRY_CODE":"US","TIME_SYSTEM":"UTC","FILE":"3228256"},{"MEAN_MOTION_DDOT":"0.0000000000000","TLE_LINE2":"2 46781  53.0544 124.6806 0001797  94.4400 265.6795 15.06411354 61558","RA_OF_ASC_NODE":"124.6806","SEMIMAJOR_AXIS":"6925.314","APOAPSIS":"548.423","LAUNCH_DATE":"2020-10-24","OBJECT_ID":"2020-074AU","CLASSIFICATION_TYPE":"U","INCLINATION":"53.0544","GP_ID":"190817676","SITE":"AFETR","BSTAR":"0.00011974000000","OBJECT_NAME":"STARLINK-1834","EPOCH":"2021-11-30T16:50:21.152544","MEAN_ANOMALY":"265.6795","PERIOD":"95.591","TLE_LINE1":"1 46781U 20074AU  21334.70163371  .00001503  00000-0  11974-3 0  9994","NORAD_CAT_ID":"46781","EPHEMERIS_TYPE":"0","ARG_OF_PERICENTER":"94.4400","REV_AT_EPOCH":"6155","MEAN_ELEMENT_THEORY":"SGP4","PERIAPSIS":"545.934","ECCENTRICITY":"0.00017970","CENTER_NAME":"EARTH","DECAY_DATE":null,"COUNTRY_CODE":"US","OBJECT_TYPE":"PAYLOAD","RCS_SIZE":"LARGE","REF_FRAME":"TEME","FILE":"3228256","TIME_SYSTEM":"UTC","MEAN_MOTION":"15.06411354","MEAN_MOTION_DOT":"0.00001503","ELEMENT_SET_NO":"999"},{"MEAN_MOTION":"15.06406138","MEAN_MOTION_DOT":"-0.00000067","ELEMENT_SET_NO":"999","ECCENTRICITY":"0.00014770","REF_FRAME":"TEME","RCS_SIZE":"LARGE","OBJECT_TYPE":"PAYLOAD","DECAY_DATE":null,"CENTER_NAME":"EARTH","COUNTRY_CODE":"US","TIME_SYSTEM":"UTC","FILE":"3228256","INCLINATION":"53.0511","SITE":"AFETR","GP_ID":"190816424","BSTAR":"0.00001442500000","EPOCH":"2021-11-30T16:09:13.274784","OBJECT_NAME":"STARLINK-1835","PERIOD":"95.592","MEAN_ANOMALY":"264.9090","NORAD_CAT_ID":"46782","TLE_LINE1":"1 46782U 20074AV  21334.67307031 -.00000067  00000-0  14425-4 0  9994","ARG_OF_PERICENTER":"95.2067","EPHEMERIS_TYPE":"0","REV_AT_EPOCH":"6168","PERIAPSIS":"546.172","MEAN_ELEMENT_THEORY":"SGP4","TLE_LINE2":"2 46782  53.0511 114.8046 0001477  95.2067 264.9090 15.06406138 61681","MEAN_MOTION_DDOT":"0.0000000000000","APOAPSIS":"548.218","LAUNCH_DATE":"2020-10-24","SEMIMAJOR_AXIS":"6925.330","RA_OF_ASC_NODE":"114.8046","OBJECT_ID":"2020-074AV","CLASSIFICATION_TYPE":"U"}];
